{
"type": "FeatureCollection",
"name": "dams",
"crs": { "type": "name", "properties": { "name": "urn:ogc:def:crs:OGC:1.3:CRS84" } },
"features": [
{ "type": "Feature", "properties": { "dam": "dam 1" }, "geometry": { "type": "MultiPolygon", "coordinates": [ [ [ [ 31.120432746685928, -17.923841002119506 ], [ 31.11975648081971, -17.923207532598067 ], [ 31.119441938556353, -17.922928206735101 ], [ 31.119452423298458, -17.923202544640091 ], [ 31.11965163339859, -17.923546713410982 ], [ 31.119960933290891, -17.923781146828571 ], [ 31.120023841743553, -17.924055483412637 ], [ 31.120369838233259, -17.924604155306145 ], [ 31.120516624622827, -17.924504396906464 ], [ 31.120673895754507, -17.924579215711489 ], [ 31.120747288949282, -17.924758780714626 ], [ 31.121009407502093, -17.924768756542793 ], [ 31.121114254923199, -17.924958297171266 ], [ 31.121942549550052, -17.925362317307659 ], [ 31.12193206480794, -17.925407208377035 ], [ 31.122188940989684, -17.925771324408249 ], [ 31.122351454492421, -17.926195294186304 ], [ 31.122555906963601, -17.926654177978868 ], [ 31.12258736118994, -17.926714032298932 ], [ 31.122451059542477, -17.926863668010622 ], [ 31.122603088303105, -17.927023279297067 ], [ 31.122555906963601, -17.927337513596882 ], [ 31.122482513768816, -17.927412331205137 ], [ 31.122482513768816, -17.927522063640076 ], [ 31.122335727379248, -17.927781430943273 ], [ 31.122377666347703, -17.927970968347701 ], [ 31.122351454492421, -17.928005883110607 ], [ 31.122209910473909, -17.928210383726508 ], [ 31.122141759650177, -17.928325103480812 ], [ 31.122278061297632, -17.928325103480812 ], [ 31.122398635831921, -17.928434835350181 ], [ 31.122786571290064, -17.928459774401915 ], [ 31.122833752629568, -17.928624372055289 ], [ 31.122862585670372, -17.92867425010186 ], [ 31.123166643191617, -17.928734103739213 ], [ 31.124073573384305, -17.928589457414326 ], [ 31.124990988319102, -17.928534591536053 ], [ 31.124985745948049, -17.928429847539405 ], [ 31.125090593369169, -17.928340066921553 ], [ 31.125064381513884, -17.928175469003929 ], [ 31.124770808734755, -17.927726564814655 ], [ 31.124377630905546, -17.927277659487522 ], [ 31.124325207194996, -17.926993352191811 ], [ 31.12387960565524, -17.926270112277084 ], [ 31.123507397310263, -17.925641639332273 ], [ 31.122956948349387, -17.924289916156891 ], [ 31.122894039896703, -17.923955724703948 ], [ 31.123108977110007, -17.92315765301198 ], [ 31.123475943083925, -17.922868351135723 ], [ 31.123544093907654, -17.922643892457973 ], [ 31.124073573384305, -17.922170034315453 ], [ 31.124162693692263, -17.921681210903436 ], [ 31.123743304007782, -17.921915646789756 ], [ 31.123397307518086, -17.922339625796308 ], [ 31.12284685855721, -17.922733675963212 ], [ 31.122401257017451, -17.923107773411857 ], [ 31.122162729134402, -17.923506809819639 ], [ 31.122110305423845, -17.923776158886742 ], [ 31.121989730889556, -17.923880905635574 ], [ 31.121853429242101, -17.923870929757399 ], [ 31.121549371720857, -17.924025555805922 ], [ 31.121266283683834, -17.924070447214088 ], [ 31.121103770181094, -17.92399562819417 ], [ 31.120888832967797, -17.923990640258378 ], [ 31.120432746685928, -17.923841002119506 ] ] ] ] } },
{ "type": "Feature", "properties": { "dam": "dam 2" }, "geometry": { "type": "MultiPolygon", "coordinates": [ [ [ [ 31.12598646201732, -17.916739481953364 ], [ 31.125729720360386, -17.917092346176037 ], [ 31.125843827763468, -17.917612593427847 ], [ 31.125834318813205, -17.917798072513495 ], [ 31.125506260029354, -17.918417842684203 ], [ 31.125482487653706, -17.918874752151837 ], [ 31.125392152626265, -17.91951713772751 ], [ 31.125377889200884, -17.919670948012733 ], [ 31.125472978703456, -17.919756900761019 ], [ 31.125487242128838, -17.920037377860144 ], [ 31.125087866218053, -17.92052142600302 ], [ 31.124945231964205, -17.920548568850375 ], [ 31.124450766550858, -17.92012333043068 ], [ 31.124384203899048, -17.91995142524792 ], [ 31.124678981357015, -17.919820234338339 ], [ 31.125011794616, -17.919164278333383 ], [ 31.125125902019075, -17.918689274193174 ], [ 31.125159183344973, -17.918580701639481 ], [ 31.125173446770365, -17.9181192675441 ], [ 31.125083111742931, -17.917997123023603 ], [ 31.125125902019075, -17.917938312668884 ], [ 31.125354116825243, -17.917938312668884 ], [ 31.125539541355252, -17.917662356128421 ], [ 31.125577577156278, -17.917228062997669 ], [ 31.125686930084232, -17.916934009752758 ], [ 31.125686930084232, -17.916934009752758 ], [ 31.12598646201732, -17.916739481953364 ] ] ] ] } }
]
}
