{
"type": "FeatureCollection",
"name": "land1",
"crs": { "type": "name", "properties": { "name": "urn:ogc:def:crs:OGC:1.3:CRS84" } },
"features": [
{ "type": "Feature", "properties": { "id": 10 }, "geometry": { "type": "MultiPolygon", "coordinates": [ [ [ [ 31.118154549687823, -17.899240775855503 ], [ 31.118257020490262, -17.899213288079309 ], [ 31.118264563946184, -17.899229695718049 ], [ 31.118264563946184, -17.899229695718049 ], [ 31.118249477034333, -17.899272765762529 ], [ 31.118268874492429, -17.899311733888997 ], [ 31.118297970679571, -17.899302504596651 ], [ 31.118315212864545, -17.899281995056409 ], [ 31.118363706509793, -17.899236874059522 ], [ 31.118363706509793, -17.899236874059522 ], [ 31.11839926851631, -17.899239950491491 ], [ 31.118398190879748, -17.899270714808264 ], [ 31.118391725060381, -17.899310708412081 ], [ 31.118388492150704, -17.89934352367003 ], [ 31.1184078896088, -17.899385568210384 ], [ 31.118446684524994, -17.899383517257434 ], [ 31.118480091258377, -17.899366084156334 ], [ 31.118501643989603, -17.899341472716578 ], [ 31.118508109808964, -17.899309682935172 ], [ 31.118511342718648, -17.899272765762529 ], [ 31.118512420355209, -17.899232772150153 ], [ 31.1185210414477, -17.899198931394178 ], [ 31.118522119084247, -17.899160988720702 ], [ 31.118515653264893, -17.899129198906955 ], [ 31.118507032172403, -17.899099460043779 ], [ 31.118505954535841, -17.899034854910035 ], [ 31.118514575628332, -17.898970249752772 ], [ 31.118540438905782, -17.89894666373711 ], [ 31.118570612729496, -17.898923077718312 ], [ 31.118634193286599, -17.898887185944574 ], [ 31.118846487689112, -17.898719007250858 ], [ 31.119144993016508, -17.898644147171282 ], [ 31.119546951453749, -17.898623637554916 ], [ 31.119873475331733, -17.898626713997526 ], [ 31.120119176467643, -17.898677988033072 ], [ 31.120233405943107, -17.898698497643146 ], [ 31.120570706186697, -17.898842064847273 ], [ 31.120688168571842, -17.898891287861943 ], [ 31.121098748101581, -17.8991763708866 ], [ 31.121123533742484, -17.899269689331124 ], [ 31.121173105024287, -17.899305581027473 ], [ 31.121173105024287, -17.899305581027473 ], [ 31.12124207376419, -17.899422485359565 ], [ 31.121292722682561, -17.899489141303899 ], [ 31.121431737798918, -17.89970654205597 ], [ 31.12147161035168, -17.899779350738864 ], [ 31.121514715814122, -17.899824471597764 ], [ 31.121624634743338, -17.90003366815726 ], [ 31.121660196749854, -17.900090069148245 ], [ 31.121665584932661, -17.900108527650485 ], [ 31.121741019491932, -17.900252093713458 ], [ 31.12177011567907, -17.900333105940586 ], [ 31.121793823683412, -17.900495130283833 ], [ 31.121783047317805, -17.90056076035545 ], [ 31.121793823683412, -17.900632543218453 ], [ 31.121792746046857, -17.900732013709185 ], [ 31.121790590773735, -17.900888910349238 ], [ 31.121792746046857, -17.901007864572055 ], [ 31.121788435500612, -17.901052985118479 ], [ 31.121752873494106, -17.901265256626008 ], [ 31.121713000941345, -17.901389337920961 ], [ 31.121697914029493, -17.901442662087174 ], [ 31.121636488745512, -17.901557514083034 ], [ 31.12156536473249, -17.901681595173553 ], [ 31.12156536473249, -17.901681595173553 ], [ 31.121538423818464, -17.901711333603846 ], [ 31.121475920897925, -17.90180772710222 ], [ 31.121389709973048, -17.901951291789935 ], [ 31.121307809594406, -17.901953342713202 ], [ 31.121307809594406, -17.901953342713202 ], [ 31.121164483931796, -17.902057939768458 ], [ 31.121164483931796, -17.902057939768458 ], [ 31.120924664672017, -17.902272723655265 ], [ 31.120586096305249, -17.902568051074937 ], [ 31.120586096305249, -17.902568051074937 ], [ 31.120416812121874, -17.902917073755109 ], [ 31.120346277045464, -17.903145280520803 ], [ 31.120339223537826, -17.903353351139479 ], [ 31.120318063014896, -17.903749355836101 ], [ 31.120416812121874, -17.904346717180111 ], [ 31.120303955999614, -17.904407124395011 ], [ 31.120141725323876, -17.904232614606936 ], [ 31.119528070159127, -17.903521149847702 ], [ 31.119048431639538, -17.902977481456961 ], [ 31.118399508936573, -17.902198891723511 ], [ 31.118131475646233, -17.90190356368916 ], [ 31.117821121310026, -17.901547826994889 ], [ 31.11771531869541, -17.901413586547498 ], [ 31.117644783619006, -17.901171953486156 ], [ 31.117588355557874, -17.900903471920834 ], [ 31.117567195034955, -17.900507460870241 ], [ 31.117623623096087, -17.900238978299164 ], [ 31.117672997649571, -17.900091312711869 ], [ 31.118145582661516, -17.899252301359784 ], [ 31.118154549687823, -17.899240775855503 ] ] ] ] } }
]
}
