{
"type": "FeatureCollection",
"name": "land8",
"crs": { "type": "name", "properties": { "name": "urn:ogc:def:crs:OGC:1.3:CRS84" } },
"features": [
{ "type": "Feature", "properties": { "OID_": 0, "Name": "LAND 8 TRB", "FolderPath": "LAND 8 TRB.kml", "SymbolID": 0, "AltMode": 0, "Base": 0.0, "Clamped": -1, "Extruded": 0, "Snippet": null, "PopupInfo": null, "Shape_Leng": 0.0186518028, "Shape_Area": 1.50469e-05 }, "geometry": { "type": "MultiPolygon", "coordinates": [ [ [ [ 31.124541129000079, -17.915703227999927, 0.0 ], [ 31.123457114000075, -17.913965900999926, 0.0 ], [ 31.123103135000065, -17.913152289999971, 0.0 ], [ 31.122534518000066, -17.911497524999959, 0.0 ], [ 31.122091767000029, -17.910240770999962, 0.0 ], [ 31.122075553000059, -17.909871481999971, 0.0 ], [ 31.122142147000034, -17.908521698999948, 0.0 ], [ 31.123037966000027, -17.907987170999945, 0.0 ], [ 31.12456389700003, -17.909832041999948, 0.0 ], [ 31.124909545000037, -17.910239665999939, 0.0 ], [ 31.12521173600004, -17.910824754999965, 0.0 ], [ 31.12507249500004, -17.911279688999969, 0.0 ], [ 31.124491423000052, -17.911915803999932, 0.0 ], [ 31.125466545000052, -17.913623745999928, 0.0 ], [ 31.125872359000027, -17.914068563999933, 0.0 ], [ 31.126036185000032, -17.914488279999944, 0.0 ], [ 31.124541129000079, -17.915703227999927, 0.0 ] ] ] ] } }
]
}
