{
"type": "FeatureCollection",
"name": "land3",
"crs": { "type": "name", "properties": { "name": "urn:ogc:def:crs:OGC:1.3:CRS84" } },
"features": [
{ "type": "Feature", "properties": { "OID_": 0, "Name": "LAND 3 TRB", "FolderPath": "LAND 3 TRB.kml", "SymbolID": 0, "AltMode": 0, "Base": 0.0, "Clamped": -1, "Extruded": 0, "Snippet": null, "PopupInfo": null, "Shape_Leng": 0.02954578978, "Shape_Area": 3.332003e-05 }, "geometry": { "type": "MultiPolygon", "coordinates": [ [ [ [ 31.132936527000027, -17.913563139999951, 0.0 ], [ 31.132803452000076, -17.908431619999931, 0.0 ], [ 31.133184979000077, -17.908158880999963, 0.0 ], [ 31.13461570100003, -17.907552402999954, 0.0 ], [ 31.134949137000035, -17.907927127999926, 0.0 ], [ 31.136361921000059, -17.915163366999934, 0.0 ], [ 31.137967214000071, -17.914805405999971, 0.0 ], [ 31.13875035500007, -17.916842064999969, 0.0 ], [ 31.136787752000032, -17.917845943999964, 0.0 ], [ 31.136539227000071, -17.917561884999941, 0.0 ], [ 31.134829490000072, -17.918332929999963, 0.0 ], [ 31.133888872000057, -17.916922831999955, 0.0 ], [ 31.133155441000042, -17.917273721999948, 0.0 ], [ 31.133055628000079, -17.916359420999981, 0.0 ], [ 31.133061462000057, -17.915309990999958, 0.0 ], [ 31.133064736000051, -17.914763042999937, 0.0 ], [ 31.132936527000027, -17.913563139999951, 0.0 ] ] ] ] } }
]
}
