{
"type": "FeatureCollection",
"name": "rivers",
"crs": { "type": "name", "properties": { "name": "urn:ogc:def:crs:OGC:1.3:CRS84" } },
"features": [
{ "type": "Feature", "properties": { "roads": "NULL44" }, "geometry": { "type": "MultiLineString", "coordinates": [ [ [ 31.124197181597811, -17.901098809448889 ], [ 31.124349596217186, -17.901304276997173 ], [ 31.124616321801092, -17.901558089522347 ], [ 31.12481954129359, -17.901570175824006 ], [ 31.125264083933416, -17.901799815399134 ], [ 31.125543510735604, -17.90182398796869 ], [ 31.125645120481849, -17.901884419378174 ], [ 31.125645120481849, -17.901884419378174 ], [ 31.125924547284036, -17.901872333097934 ], [ 31.125949949720589, -17.902029454676953 ], [ 31.12589914484747, -17.90218657611678 ], [ 31.12589914484747, -17.902331611168471 ], [ 31.125937248502314, -17.902476646101572 ], [ 31.126051559466838, -17.902694198278834 ], [ 31.12612776677652, -17.902839232915444 ], [ 31.126165870431372, -17.903286422298336 ], [ 31.126356388705592, -17.903600662811769 ], [ 31.12636908992387, -17.903818213610307 ], [ 31.126419894796992, -17.90453129491231 ], [ 31.126496102106678, -17.904821361062233 ], [ 31.126445297233552, -17.905050996427786 ], [ 31.126394492360426, -17.905123512797228 ], [ 31.126381791142144, -17.90523228729581 ], [ 31.126457998451833, -17.905546524361334 ], [ 31.126724724035732, -17.9062354267488 ], [ 31.126737425254017, -17.906416716405953 ], [ 31.127093059365883, -17.907093529488328 ], [ 31.127169266675565, -17.907456106862643 ], [ 31.127093059365883, -17.907854941118046 ], [ 31.127118461802443, -17.907975799806206 ], [ 31.127334382513222, -17.908338375376385 ], [ 31.127626510533688, -17.908568006187348 ], [ 31.127651912970247, -17.90919646793861 ], [ 31.127702717843366, -17.909426097638185 ], [ 31.127842431244456, -17.909643641289755 ], [ 31.127905937335864, -17.909764498758609 ], [ 31.127956742208994, -17.909921613344959 ], [ 31.127956742208994, -17.910163327821309 ], [ 31.127982144645546, -17.910272099228134 ], [ 31.128096455610081, -17.910513813226611 ], [ 31.128198065356329, -17.910948897593364 ], [ 31.128223467792886, -17.911214781958478 ], [ 31.128515595813351, -17.911613607758429 ], [ 31.128693412869286, -17.911867405527573 ], [ 31.128718815305845, -17.912060775012542 ], [ 31.128591803123044, -17.912157459675942 ], [ 31.128464790940221, -17.912290401001986 ], [ 31.128121858046637, -17.912568368906999 ], [ 31.127817028807904, -17.913208901985115 ] ] ] } },
{ "type": "Feature", "properties": { "roads": "NULL33" }, "geometry": { "type": "MultiLineString", "coordinates": [ [ [ 31.127700449212028, -17.913312179722677 ], [ 31.127618192483052, -17.913371587360274 ], [ 31.127467388479928, -17.913719807512937 ], [ 31.127319783349602, -17.91402324344649 ], [ 31.127269972330389, -17.914123779448577 ], [ 31.127152984982512, -17.914440010873303 ], [ 31.127073470144502, -17.914645652695746 ], [ 31.126930434832449, -17.914923497646956 ], [ 31.126813447484572, -17.915142848924226 ], [ 31.126734846610219, -17.915315588055076 ], [ 31.126654874790379, -17.91549563889517 ], [ 31.126543371224436, -17.915665636135053 ], [ 31.126331788638236, -17.916001974760206 ], [ 31.126245876054639, -17.91619756298244 ], [ 31.126115636233759, -17.916490031352133 ], [ 31.126067196160029, -17.916588739426906 ], [ 31.126012358340713, -17.916675565974156 ] ] ] } },
{ "type": "Feature", "properties": { "roads": null }, "geometry": { "type": "MultiLineString", "coordinates": [ [ [ 31.12612674542542, -17.899237563597953 ], [ 31.126030359609828, -17.899403226718505 ], [ 31.125930961737499, -17.89961708274685 ], [ 31.125897829113388, -17.899671299768119 ], [ 31.125888792943176, -17.899785757924136 ], [ 31.125921925567287, -17.899882143739728 ], [ 31.125943009964448, -17.90002371040638 ], [ 31.125927949680761, -17.900108047995023 ], [ 31.125843612092119, -17.900219494094301 ], [ 31.125816503581483, -17.900249614661675 ], [ 31.125822527694957, -17.900318891966631 ], [ 31.125867708546018, -17.900472506860229 ], [ 31.125867708546018, -17.900547808278663 ], [ 31.125786383014109, -17.900662266434679 ], [ 31.125768310673688, -17.900707447285736 ], [ 31.125777346843897, -17.900755640193534 ], [ 31.125834575921907, -17.900809857214803 ], [ 31.125888792943176, -17.900833953668702 ], [ 31.125897829113388, -17.900855038065863 ], [ 31.125894817056651, -17.900888170689971 ], [ 31.125831563865169, -17.900960460051667 ], [ 31.12577433478716, -17.901023713243148 ], [ 31.125764304426308, -17.901104015099598 ], [ 31.125766407148959, -17.901205997148004 ], [ 31.125793742543376, -17.901253308407572 ], [ 31.125807410240583, -17.901316390087 ], [ 31.125827386105737, -17.901383677211722 ], [ 31.125851567416184, -17.901445707529824 ], [ 31.125864183752068, -17.901478299730861 ], [ 31.125864183752068, -17.901490916066749 ], [ 31.125870491920011, -17.901542432771613 ], [ 31.125885210978545, -17.901610771257658 ], [ 31.125914649095609, -17.901694880163561 ], [ 31.125922008624876, -17.901710650583418 ], [ 31.125924111347523, -17.901824197606384 ], [ 31.125926214070169, -17.901847327555508 ], [ 31.125924111347523, -17.901882022479192 ] ] ] } }
]
}
