{
"type": "FeatureCollection",
"name": "roads",
"crs": { "type": "name", "properties": { "name": "urn:ogc:def:crs:OGC:1.3:CRS84" } },
"features": [
{ "type": "Feature", "properties": { "roads": "Twentydales Rd" }, "geometry": { "type": "MultiLineString", "coordinates": [ [ [ 31.112456742266883, -17.895826139338595 ], [ 31.115212078968359, -17.898791499603067 ], [ 31.118689051472593, -17.902833674021966 ], [ 31.122805655711112, -17.907515614181882 ], [ 31.125282178579695, -17.910433961003783 ], [ 31.126217024960553, -17.911167441688221 ], [ 31.129874406415478, -17.916114455547199 ], [ 31.132572340269011, -17.920281076173957 ], [ 31.134032012688238, -17.923058768824614 ], [ 31.134852053373201, -17.925243440310378 ], [ 31.136090314807497, -17.928801276196907 ], [ 31.136073913993808, -17.928832484967398 ] ] ] } },
{ "type": "Feature", "properties": { "roads": null }, "geometry": { "type": "MultiLineString", "coordinates": [ [ [ 31.131347416505236, -17.918382132556051 ], [ 31.134355319872498, -17.916621612766743 ], [ 31.136289678781363, -17.915473028931299 ], [ 31.137130704393918, -17.914974051667052 ], [ 31.137190070907749, -17.914663367000408 ], [ 31.136972393690389, -17.914107899117909 ], [ 31.136230312267539, -17.912064892100162 ], [ 31.135884007603543, -17.911170480695453 ], [ 31.135834535508693, -17.910304309560242 ], [ 31.135834535508693, -17.909758242973943 ], [ 31.135557491777497, -17.908892064938836 ], [ 31.135201292694536, -17.908044712766333 ] ] ] } },
{ "type": "Feature", "properties": { "roads": "Kutsaga road" }, "geometry": { "type": "MultiLineString", "coordinates": [ [ [ 31.112316037948052, -17.920054756744115 ], [ 31.112930792596963, -17.920039200070239 ], [ 31.113336269067535, -17.919939637325161 ], [ 31.114013153175648, -17.919612946674899 ], [ 31.11517726304276, -17.919059126863122 ], [ 31.116011105784644, -17.918698209649673 ], [ 31.116733769494278, -17.918486637148284 ], [ 31.117695141126102, -17.918284398491689 ], [ 31.118524078910671, -17.918187946128022 ], [ 31.119573739773994, -17.918178612025525 ], [ 31.120054425589903, -17.918215948432557 ], [ 31.121239790271993, -17.918315512146179 ], [ 31.122196256946502, -17.918352848524375 ], [ 31.123433307261198, -17.91836886278633 ], [ 31.123635166236856, -17.918460661064433 ], [ 31.123704741611174, -17.918605098772886 ], [ 31.123692091543116, -17.919321267338102 ], [ 31.1237110666452, -17.919555977414571 ], [ 31.123742691815348, -17.919676341435753 ], [ 31.123983043108431, -17.919941141994506 ], [ 31.124748372225906, -17.920512869124 ], [ 31.125058298893322, -17.920801741077312 ], [ 31.125298650186409, -17.920976267654211 ], [ 31.126095604474024, -17.921156812208004 ], [ 31.126740757944955, -17.921198939244093 ], [ 31.127834988831914, -17.921096630710512 ], [ 31.129460522577297, -17.921024412886538 ], [ 31.129871649789155, -17.920952195033127 ], [ 31.13106075618656, -17.920326305737152 ], [ 31.132249862583958, -17.919790687180129 ] ] ] } },
{ "type": "Feature", "properties": { "roads": null }, "geometry": { "type": "MultiLineString", "coordinates": [ [ [ 31.124763729124254, -17.909826842979694 ], [ 31.124238024523322, -17.910179117162421 ], [ 31.123575340554527, -17.91064764074088 ], [ 31.122373994477037, -17.911503661825375 ], [ 31.121337393855487, -17.912246952500514 ], [ 31.120930157897014, -17.912634448772927 ], [ 31.120411857586234, -17.91328614513894 ], [ 31.120145303140688, -17.913765228506854 ], [ 31.120062004876452, -17.913902612469037 ], [ 31.119921323363531, -17.914357035585301 ], [ 31.119828769736603, -17.914596575983833 ], [ 31.11975102468999, -17.915227129308693 ], [ 31.119714003239217, -17.915551211708991 ], [ 31.119710301094138, -17.916023243710072 ], [ 31.119791748285827, -17.917164569622003 ], [ 31.119862089042293, -17.918200383238911 ] ] ] } },
{ "type": "Feature", "properties": { "roads": null }, "geometry": { "type": "MultiLineString", "coordinates": [ [ [ 31.119850877886375, -17.918193964612527 ], [ 31.120056714781299, -17.921379126489345 ], [ 31.120165049989147, -17.921698670313283 ], [ 31.120544223216637, -17.921873903778494 ], [ 31.120880062360992, -17.921935750842476 ], [ 31.121226735026127, -17.922049137070374 ], [ 31.121389237837903, -17.922203754536923 ], [ 31.121508406566551, -17.922451142202696 ], [ 31.121595074732831, -17.92261606712129 ], [ 31.121974247960321, -17.922719145117433 ], [ 31.122396755270952, -17.922523296873472 ], [ 31.122483423437245, -17.922317140593268 ], [ 31.122494256958028, -17.922049137070374 ], [ 31.122765094977655, -17.921420357982878 ], [ 31.123512607911863, -17.920204024889706 ], [ 31.123880947618566, -17.919874170408185 ], [ 31.123905326975276, -17.919850973747803 ] ] ] } },
{ "type": "Feature", "properties": { "roads": null }, "geometry": { "type": "MultiLineString", "coordinates": [ [ [ 31.126933680421502, -17.905647544220926 ], [ 31.126633401679133, -17.905578573817643 ], [ 31.126374540694325, -17.905598279649894 ], [ 31.124935273618831, -17.905815043660088 ], [ 31.123754867528127, -17.905923425565817 ], [ 31.123485652103934, -17.905923425565817 ], [ 31.122212056058711, -17.906297835275943 ], [ 31.121808232922422, -17.906386511144134 ] ] ] } },
{ "type": "Feature", "properties": { "roads": null }, "geometry": { "type": "MultiLineString", "coordinates": [ [ [ 31.129723529713839, -17.9184147664335 ], [ 31.130266712596608, -17.918826619727731 ], [ 31.130614689130887, -17.919440360115477 ], [ 31.130826869944471, -17.919803758027257 ], [ 31.131030563525517, -17.920344815759368 ] ] ] } },
{ "type": "Feature", "properties": { "roads": null }, "geometry": { "type": "MultiLineString", "coordinates": [ [ [ 31.137032769559539, -17.91426622055986 ], [ 31.137629309512814, -17.91410903385335 ], [ 31.138198316852865, -17.914074103455182 ], [ 31.138290092230289, -17.913986777429677 ], [ 31.13712454493697, -17.910982735956456 ], [ 31.137087834786001, -17.910013397757048 ], [ 31.137041947097284, -17.909384635009943 ], [ 31.136509649908206, -17.908127102826146 ], [ 31.136151725936244, -17.907210146652599 ], [ 31.136399519455296, -17.906782232148817 ] ] ] } },
{ "type": "Feature", "properties": { "roads": null }, "geometry": { "type": "MultiLineString", "coordinates": [ [ [ 31.126127827249807, -17.899254331428438 ], [ 31.126127827249807, -17.899254331428438 ], [ 31.126023179442019, -17.899428601044853 ], [ 31.125918531634227, -17.899652661728663 ], [ 31.125887137291887, -17.899697473831488 ], [ 31.125892369682283, -17.899747265043537 ], [ 31.125928996415006, -17.899906596828231 ], [ 31.125955158366956, -17.900041032910242 ], [ 31.125934228805395, -17.900130656908303 ], [ 31.125840045778382, -17.900240197288909 ], [ 31.125829580997603, -17.900329821186336 ], [ 31.125876672511112, -17.900533964339278 ], [ 31.125777257093716, -17.900693295417337 ], [ 31.125787721874492, -17.900763002718989 ], [ 31.125913299243837, -17.900847647262736 ], [ 31.125876672511112, -17.900902417240111 ], [ 31.12580341904566, -17.901021915313855 ], [ 31.125751095141766, -17.901161329631481 ], [ 31.12580341904566, -17.901285806608193 ], [ 31.125855742949547, -17.901465053301209 ], [ 31.125902834463055, -17.901634341678289 ], [ 31.125934228805395, -17.901709027675619 ], [ 31.125918531634227, -17.901883294880456 ] ] ] } },
{ "type": "Feature", "properties": { "roads": null }, "geometry": { "type": "MultiLineString", "coordinates": [ ] } }
]
}
