{
"type": "FeatureCollection",
"name": "Kutsagaresearchstation",
"crs": { "type": "name", "properties": { "name": "urn:ogc:def:crs:OGC:1.3:CRS84" } },
"features": [
{ "type": "Feature", "properties": { "BOUNDARY": "TRBB" }, "geometry": { "type": "MultiPolygon", "coordinates": [ [ [ [ 31.112683060326177, -17.895373128644312 ], [ 31.112908609448255, -17.89538810330972 ], [ 31.112997780031403, -17.895368137088891 ], [ 31.113123667913491, -17.895318221527013 ], [ 31.113228574481901, -17.895273297509309 ], [ 31.113679672726072, -17.895183449439784 ], [ 31.114419264033355, -17.895028710991184 ], [ 31.115609953584801, -17.894799098851028 ], [ 31.116349544892103, -17.894674309519818 ], [ 31.118620772098172, -17.8943099241704 ], [ 31.119722291066481, -17.894135218600514 ], [ 31.120252069236944, -17.894045369954743 ], [ 31.120939207260026, -17.894085302691817 ], [ 31.121384311820727, -17.894660504686762 ], [ 31.122181630072209, -17.894319068469013 ], [ 31.126008757679319, -17.899099115729012 ], [ 31.128480444258908, -17.901830513481951 ], [ 31.12899870112237, -17.901944320808926 ], [ 31.126128355417041, -17.902323678038069 ], [ 31.127563528269704, -17.908241545746137 ], [ 31.128195644764009, -17.91036025060783 ], [ 31.135559177429041, -17.907141307697753 ], [ 31.142818439154695, -17.904099920733962 ], [ 31.143076430025424, -17.904645468770571 ], [ 31.141456820670314, -17.910782768531014 ], [ 31.1403388602305, -17.91460142560123 ], [ 31.139249565442991, -17.918242711247004 ], [ 31.137615623261738, -17.923834052896648 ], [ 31.136196673472753, -17.928702467621765 ], [ 31.13609634368968, -17.928852472672894 ], [ 31.13349903212286, -17.929425548305542 ], [ 31.127168991832697, -17.930671933573446 ], [ 31.117138927992187, -17.932784108422922 ], [ 31.112638899349886, -17.933678445135062 ], [ 31.112328897376745, -17.933754558689184 ], [ 31.112068895721862, -17.933887757330154 ], [ 31.112018895403608, -17.933897271514954 ], [ 31.111818894130614, -17.933735530303721 ], [ 31.112078895785501, -17.933450104276336 ], [ 31.112238896803898, -17.933193220458246 ], [ 31.112398897822295, -17.93265090895159 ], [ 31.112398897822295, -17.93049116068158 ], [ 31.112408897885945, -17.927741487100811 ], [ 31.112368897631342, -17.923022224628497 ], [ 31.112378897694992, -17.919758628859103 ], [ 31.112380853087142, -17.916904191582486 ], [ 31.112330481195169, -17.916005519791291 ], [ 31.112108823770207, -17.915293717330183 ], [ 31.111640100149213, -17.914574366992792 ], [ 31.111216736878642, -17.914113981244629 ], [ 31.112018103069367, -17.913423400380164 ], [ 31.112532187040792, -17.912934237306587 ], [ 31.112501946807175, -17.909855356386551 ], [ 31.112381145470255, -17.90684829601831 ], [ 31.112783930040706, -17.906523988015778 ], [ 31.112412128898754, -17.906081748874627 ], [ 31.112474095755747, -17.903162942883096 ], [ 31.112536062612737, -17.902927077674885 ], [ 31.113186714611142, -17.902013097030409 ], [ 31.113136547526477, -17.902125117130247 ], [ 31.112762229391688, -17.902618309209789 ], [ 31.112589467175621, -17.902864904735274 ], [ 31.112459416250317, -17.90313716274094 ], [ 31.11255827861984, -17.902721663393706 ], [ 31.11304435193669, -17.90218856846602 ], [ 31.113118498713828, -17.901914180746282 ], [ 31.113151452837016, -17.901741708248061 ], [ 31.113176168429394, -17.901577075252391 ], [ 31.113126737244627, -17.901443800810657 ], [ 31.112624186866192, -17.901114534113496 ], [ 31.11246765478111, -17.900918541741678 ], [ 31.112442939188732, -17.899648505924066 ], [ 31.112327599757606, -17.899248677951466 ], [ 31.112278168572843, -17.899068363080737 ], [ 31.112294645634439, -17.898880208237639 ], [ 31.112550040089051, -17.898676373599059 ], [ 31.112418223596343, -17.898237344351326 ], [ 31.112401746534758, -17.897853192868318 ], [ 31.112368792411576, -17.89761799767227 ], [ 31.112327599757606, -17.89734360288282 ], [ 31.112352315349984, -17.896653694108739 ], [ 31.112360553880791, -17.896010822154715 ], [ 31.112434700657932, -17.895854023763825 ], [ 31.11256651715064, -17.895697225234358 ], [ 31.1126077098046, -17.895681545373787 ], [ 31.112657140989374, -17.895399307646638 ], [ 31.112681856581752, -17.895391467703369 ], [ 31.112683060326177, -17.895373128644312 ] ] ] ] } }
]
}
