{
"type": "FeatureCollection",
"name": "land9",
"crs": { "type": "name", "properties": { "name": "urn:ogc:def:crs:OGC:1.3:CRS84" } },
"features": [
{ "type": "Feature", "properties": { "land 9": "Land 9", "area_ha": 32.2 }, "geometry": { "type": "MultiPolygon", "coordinates": [ [ [ [ 31.115208715558175, -17.899128585395584 ], [ 31.115188879173832, -17.89913330446678 ], [ 31.115188879173832, -17.89913330446678 ], [ 31.115193838269921, -17.899123866324263 ], [ 31.115193838269921, -17.899123866324263 ], [ 31.115322774768096, -17.899138023537862 ], [ 31.115407079401521, -17.89922296679574 ], [ 31.115769093415636, -17.899642963417499 ], [ 31.116294757600503, -17.900317787367811 ], [ 31.116413775906519, -17.900431044282715 ], [ 31.116468325963428, -17.900549020158852 ], [ 31.116269962120089, -17.900633962741075 ], [ 31.11611623014149, -17.900775533621069 ], [ 31.116012089123739, -17.900912385364325 ], [ 31.115962498162894, -17.901049237002002 ], [ 31.115937702682476, -17.901138898362547 ], [ 31.116007130027644, -17.901341816011158 ], [ 31.116071598276733, -17.901488105334746 ], [ 31.116170780198409, -17.901615518518298 ], [ 31.11622533025534, -17.901624956528252 ], [ 31.116289798504415, -17.901724055602447 ], [ 31.116349307657423, -17.901978881539019 ], [ 31.116349307657423, -17.901978881539019 ], [ 31.116607180653773, -17.902134608320033 ], [ 31.116731158055874, -17.902191236206491 ], [ 31.116974153763977, -17.902210112164632 ], [ 31.117346085970247, -17.901898658598469 ], [ 31.11747502246843, -17.901827873620796 ], [ 31.117718018176529, -17.902026071487089 ], [ 31.117832077386456, -17.902158203274912 ], [ 31.118189132304476, -17.902582911926249 ], [ 31.118417250724324, -17.902833017656238 ], [ 31.118784223834524, -17.903271881575353 ], [ 31.118923078524869, -17.903441764091195 ], [ 31.11898258767787, -17.903460639916254 ], [ 31.118947874005283, -17.903677711759915 ], [ 31.11879414202669, -17.90381456126395 ], [ 31.118412291628243, -17.90419207658968 ], [ 31.118213927784897, -17.904380833951208 ], [ 31.118114745863227, -17.904512963984729 ], [ 31.117926300212044, -17.90436195822409 ], [ 31.117752731849112, -17.904031632674442 ], [ 31.117638672639185, -17.904026913733567 ], [ 31.117504777044928, -17.904045789496323 ], [ 31.117504777044928, -17.904182638716343 ], [ 31.117450226988005, -17.904560153258565 ], [ 31.117435349699761, -17.904786661598152 ], [ 31.117385758738916, -17.904918791329308 ], [ 31.117023744724804, -17.905508654999799 ], [ 31.116949358283552, -17.905593595206735 ], [ 31.11632947127309, -17.906159862213272 ], [ 31.116061680084567, -17.906306147562706 ], [ 31.115724461550887, -17.906381649631331 ], [ 31.115521138611452, -17.906395806265628 ], [ 31.115431874881935, -17.90641940065359 ], [ 31.114945883465744, -17.906476027171905 ], [ 31.114673133181139, -17.906386368509551 ], [ 31.114668174085054, -17.906287272040537 ], [ 31.114688010469379, -17.906273115397571 ], [ 31.114777274198897, -17.906249520990144 ], [ 31.114995474426578, -17.906164581097389 ], [ 31.115084738156089, -17.906150424444647 ], [ 31.115218633750334, -17.906070203391053 ], [ 31.115317815672011, -17.906027733406827 ], [ 31.115327733864177, -17.905985263412404 ], [ 31.115288061095509, -17.905928636737368 ], [ 31.115218633750334, -17.905938074517799 ], [ 31.115015310810914, -17.905914480065785 ], [ 31.114807028775399, -17.905942793407828 ], [ 31.114663214988973, -17.905900323393062 ], [ 31.114648337700711, -17.90565494088646 ], [ 31.114623542220304, -17.905489779392727 ], [ 31.11455411487513, -17.905249115226507 ], [ 31.114578910355537, -17.904984856157981 ], [ 31.114623542220304, -17.904942385913799 ], [ 31.114588828547717, -17.904895196741684 ], [ 31.114489646626041, -17.904866883232387 ], [ 31.114296241878765, -17.904843288637853 ], [ 31.114008614305913, -17.904833850799154 ], [ 31.113944146056824, -17.904932948080383 ], [ 31.113949105152919, -17.905008450733664 ], [ 31.114078041651084, -17.905093391180202 ], [ 31.114078041651084, -17.905093391180202 ], [ 31.113978859729411, -17.905239677409401 ], [ 31.113939186960739, -17.905385963517947 ], [ 31.113904473288155, -17.905466184881082 ], [ 31.113864800519487, -17.905579438508408 ], [ 31.113864800519487, -17.905650221988768 ], [ 31.113780495886072, -17.905721005440867 ], [ 31.113790414078238, -17.905862572260311 ], [ 31.113611886619225, -17.905895604501925 ], [ 31.113398645487624, -17.905876728936033 ], [ 31.11315069068344, -17.905824821119509 ], [ 31.113111017914768, -17.905796507758637 ], [ 31.113086222434344, -17.90576347549856 ], [ 31.113111017914768, -17.905711567648886 ], [ 31.113210199836445, -17.90565494088646 ], [ 31.113210199836445, -17.90565494088646 ], [ 31.11321515893253, -17.90560775190394 ], [ 31.113155649779515, -17.90560775190394 ], [ 31.113036631473516, -17.905664378681443 ], [ 31.112972163224427, -17.905650221988768 ], [ 31.112877940398828, -17.905579438508408 ], [ 31.112744044804579, -17.905447309269491 ], [ 31.112625026498559, -17.905296304304454 ], [ 31.112580394633813, -17.905201926136009 ], [ 31.112530803672978, -17.905060358789168 ], [ 31.112501049096476, -17.90498013724245 ], [ 31.112466335423889, -17.904777223756437 ], [ 31.112461376327808, -17.904645093919807 ], [ 31.112446499039546, -17.903989162201988 ], [ 31.112456417231712, -17.90394197277622 ], [ 31.112436580847387, -17.90335682285361 ], [ 31.112476253616055, -17.90316806440223 ], [ 31.112520885480802, -17.90318222129304 ], [ 31.112525844576883, -17.903092560965419 ], [ 31.112575435537732, -17.903054809234963 ], [ 31.112585353729894, -17.903031214399341 ], [ 31.112580394633813, -17.902969867812043 ], [ 31.112625026498559, -17.902884926348456 ], [ 31.112689494747656, -17.902785827922862 ], [ 31.112768840284986, -17.902648977625052 ], [ 31.112793635765414, -17.902582911926249 ], [ 31.112793635765414, -17.902507408240336 ], [ 31.113066386050019, -17.902162922265529 ], [ 31.11309614062651, -17.902054385449922 ], [ 31.113101099722606, -17.901860906613891 ], [ 31.113165567971681, -17.901705179592589 ], [ 31.113165567971681, -17.901558890448023 ], [ 31.113101099722606, -17.901398444150736 ], [ 31.113021754185255, -17.901370130083201 ], [ 31.113051508761757, -17.901313501934592 ], [ 31.113026713281336, -17.901195526566909 ], [ 31.11300687689701, -17.901058675042087 ], [ 31.113021754185255, -17.901039798961417 ], [ 31.113091181530425, -17.900987889729215 ], [ 31.11315069068344, -17.90097373266325 ], [ 31.11315069068344, -17.90097373266325 ], [ 31.113413522775865, -17.900950137550801 ], [ 31.113492868313216, -17.900893509268084 ], [ 31.113537500177969, -17.900841599993072 ], [ 31.113601968427059, -17.900775533621069 ], [ 31.113592050234878, -17.900704748195203 ], [ 31.113592050234878, -17.900704748195203 ], [ 31.113666436676134, -17.900638681772239 ], [ 31.113755700405651, -17.900511267887019 ], [ 31.113760659501725, -17.900355539680813 ], [ 31.113730904925223, -17.900261158883243 ], [ 31.113666436676134, -17.900242282717702 ], [ 31.113735864021308, -17.899888354241906 ], [ 31.113954064249, -17.89969487304327 ], [ 31.114216896341436, -17.89952498693879 ], [ 31.114355751031781, -17.899444762888429 ], [ 31.114544196682953, -17.899232404932977 ], [ 31.114707846853722, -17.899147461679632 ], [ 31.115208715558175, -17.899128585395584 ] ] ] ] } }
]
}
