{
"type": "FeatureCollection",
"name": "land7",
"crs": { "type": "name", "properties": { "name": "urn:ogc:def:crs:OGC:1.3:CRS84" } },
"features": [
{ "type": "Feature", "properties": { "OID_": 0, "Name": "LAND 7 TRB", "FolderPath": "LAND 7 TRB.kml", "SymbolID": 0, "AltMode": 0, "Base": 0.0, "Clamped": -1, "Extruded": 0, "Snippet": null, "PopupInfo": null, "Shape_Leng": 0.01992507619, "Shape_Area": 2.669512e-05 }, "geometry": { "type": "MultiPolygon", "coordinates": [ [ [ [ 31.119757868000079, -17.91433602799998, 0.0 ], [ 31.119722515000035, -17.914753154999971, 0.0 ], [ 31.119652841000061, -17.915424002999941, 0.0 ], [ 31.119736407000062, -17.916934473999959, 0.0 ], [ 31.119830898000032, -17.917785935999973, 0.0 ], [ 31.119676648000052, -17.917733093999971, 0.0 ], [ 31.119663741000068, -17.917737452999972, 0.0 ], [ 31.119143397000073, -17.917705778999959, 0.0 ], [ 31.118963980000046, -17.917761930999973, 0.0 ], [ 31.118745245000071, -17.917817463999938, 0.0 ], [ 31.118429973000048, -17.917960631999961, 0.0 ], [ 31.118171261000043, -17.918187630999967, 0.0 ], [ 31.117898267000044, -17.91821073899996, 0.0 ], [ 31.117857704000073, -17.918219249999936, 0.0 ], [ 31.117289864000043, -17.91826003999995, 0.0 ], [ 31.116823073000035, -17.918247847999965, 0.0 ], [ 31.116267778000065, -17.918260617999977, 0.0 ], [ 31.116079442000057, -17.918148521999967, 0.0 ], [ 31.115752583000074, -17.91790266199996, 0.0 ], [ 31.115353183000025, -17.917522383999938, 0.0 ], [ 31.115236448000076, -17.917257278999955, 0.0 ], [ 31.115064186000041, -17.916838061999954, 0.0 ], [ 31.115053581000041, -17.916551659999982, 0.0 ], [ 31.114759228000025, -17.916256331999932, 0.0 ], [ 31.114541723000059, -17.915832010999964, 0.0 ], [ 31.114348775000053, -17.914592802999948, 0.0 ], [ 31.114435423000032, -17.914275926999949, 0.0 ], [ 31.117204206000054, -17.91164841899996, 0.0 ], [ 31.117511747000037, -17.911372946999961, 0.0 ], [ 31.117708386000061, -17.911392950999982, 0.0 ], [ 31.118016382000064, -17.911528817999965, 0.0 ], [ 31.119757868000079, -17.91433602799998, 0.0 ] ] ] ] } }
]
}
