{
"type": "FeatureCollection",
"name": "land6",
"crs": { "type": "name", "properties": { "name": "urn:ogc:def:crs:OGC:1.3:CRS84" } },
"features": [
{ "type": "Feature", "properties": { "OID_": 0, "Name": "LAND 6 TRB", "FolderPath": "LAND 6 TRB.kml", "SymbolID": 0, "AltMode": 0, "Base": 0.0, "Clamped": -1, "Extruded": 0, "Snippet": null, "PopupInfo": null, "Shape_Leng": 0.02245282224, "Shape_Area": 1.977003e-05 }, "geometry": { "type": "MultiPolygon", "coordinates": [ [ [ [ 31.113897778000023, -17.932693916999938, 0.0 ], [ 31.112619447000043, -17.932621874999938, 0.0 ], [ 31.112556640000037, -17.930234292999955, 0.0 ], [ 31.117546036000078, -17.930276797999966, 0.0 ], [ 31.118917654000029, -17.930284927999935, 0.0 ], [ 31.120135281000046, -17.930045757999949, 0.0 ], [ 31.121474847000059, -17.930088401999967, 0.0 ], [ 31.121957270000053, -17.930988533999937, 0.0 ], [ 31.122084266000059, -17.931490708999945, 0.0 ], [ 31.120887088000075, -17.93183758999993, 0.0 ], [ 31.11705476700007, -17.932527372999971, 0.0 ], [ 31.115144210000039, -17.932661912999947, 0.0 ], [ 31.113897778000023, -17.932693916999938, 0.0 ] ] ] ] } }
]
}
