{
"type": "FeatureCollection",
"name": "land5",
"crs": { "type": "name", "properties": { "name": "urn:ogc:def:crs:OGC:1.3:CRS84" } },
"features": [
{ "type": "Feature", "properties": { "OID_": 0, "Name": "LAND 5 TRB", "FolderPath": "LAND 5 TRB.kml", "SymbolID": 0, "AltMode": 0, "Base": 0.0, "Clamped": -1, "Extruded": 0, "Snippet": null, "PopupInfo": null, "Shape_Leng": 0.00994630171, "Shape_Area": 4.88317e-06 }, "geometry": { "type": "MultiPolygon", "coordinates": [ [ [ [ 31.11261319700003, -17.926066857999956, 0.0 ], [ 31.112578118000044, -17.926028367999947, 0.0 ], [ 31.112556088000076, -17.922664576999978, 0.0 ], [ 31.112994653000044, -17.922696195999947, 0.0 ], [ 31.11312169100006, -17.92281202199996, 0.0 ], [ 31.113357405000045, -17.923684754999954, 0.0 ], [ 31.114271183000028, -17.923814056999959, 0.0 ], [ 31.114224705000026, -17.924500135999949, 0.0 ], [ 31.114435704000073, -17.924701294999977, 0.0 ], [ 31.114445344000046, -17.925961057999928, 0.0 ], [ 31.113764654000079, -17.926087199999927, 0.0 ], [ 31.112709385000073, -17.926109228999962, 0.0 ], [ 31.11261319700003, -17.926066857999956, 0.0 ] ] ] ] } }
]
}
