{
"type": "FeatureCollection",
"name": "land2",
"crs": { "type": "name", "properties": { "name": "urn:ogc:def:crs:OGC:1.3:CRS84" } },
"features": [
{ "type": "Feature", "properties": { "OID_": 0, "Name": "LAND 2 TRB", "FolderPath": "LAND 2 TRB.kml", "SymbolID": 0, "AltMode": 0, "Base": 0.0, "Clamped": -1, "Extruded": 0, "Snippet": null, "PopupInfo": null, "Shape_Leng": 0.0271514764, "Shape_Area": 2.957666e-05 }, "geometry": { "type": "MultiPolygon", "coordinates": [ [ [ [ 31.13184181400004, -17.918573741999978, 0.0 ], [ 31.131607768000038, -17.918249577999973, 0.0 ], [ 31.133101988000078, -17.917348469999979, 0.0 ], [ 31.133930910000061, -17.917927905999932, 0.0 ], [ 31.13502507100003, -17.91873099299994, 0.0 ], [ 31.135211820000052, -17.918591204999927, 0.0 ], [ 31.136685501000045, -17.917889732999981, 0.0 ], [ 31.136738001000026, -17.918039501999942, 0.0 ], [ 31.136664747000054, -17.918416670999932, 0.0 ], [ 31.13669565400005, -17.918986243999939, 0.0 ], [ 31.136585500000024, -17.919337023999958, 0.0 ], [ 31.136397760000079, -17.919832135999968, 0.0 ], [ 31.136582557000054, -17.920173614999953, 0.0 ], [ 31.137973430000045, -17.92226719599995, 0.0 ], [ 31.137646545000052, -17.92367324099996, 0.0 ], [ 31.136569953000048, -17.927399880999928, 0.0 ], [ 31.13605636300008, -17.927559308999946, 0.0 ], [ 31.135984808000046, -17.927535235999926, 0.0 ], [ 31.135911729000043, -17.927415645999929, 0.0 ], [ 31.135872020000079, -17.92726926499995, 0.0 ], [ 31.135846795000077, -17.92702946199995, 0.0 ], [ 31.135797108000077, -17.926899293999952, 0.0 ], [ 31.135724046000064, -17.92667060499997, 0.0 ], [ 31.135562432000029, -17.926259122999966, 0.0 ], [ 31.135434875000044, -17.925951135999981, 0.0 ], [ 31.135034025000039, -17.924901495999961, 0.0 ], [ 31.134345981000024, -17.923212629999966, 0.0 ], [ 31.133737509000071, -17.922073152999928, 0.0 ], [ 31.133591121000052, -17.921537672999932, 0.0 ], [ 31.133328813000048, -17.921088424999937, 0.0 ], [ 31.133038868000028, -17.920548317999931, 0.0 ], [ 31.132522749000032, -17.919698856999958, 0.0 ], [ 31.132206169000028, -17.919144101999962, 0.0 ], [ 31.13184181400004, -17.918573741999978, 0.0 ] ] ] ] } }
]
}
