{
"type": "FeatureCollection",
"name": "land1ab",
"crs": { "type": "name", "properties": { "name": "urn:ogc:def:crs:OGC:1.3:CRS84" } },
"features": [
{ "type": "Feature", "properties": { "line": "1ab" }, "geometry": { "type": "MultiPolygon", "coordinates": [ [ [ [ 31.130007776302957, -17.923501605316481 ], [ 31.130156764754997, -17.923755562905185 ], [ 31.130298981004671, -17.924094173023459 ], [ 31.130505533176816, -17.924449713647643 ], [ 31.130454741659076, -17.924534366177209 ], [ 31.130312525409401, -17.924625790909143 ], [ 31.130221100677467, -17.924663038022153 ], [ 31.130102587136072, -17.924710443438713 ], [ 31.129794451928447, -17.924900065104943 ], [ 31.129831699041457, -17.924988103735693 ], [ 31.130028092910052, -17.925147250491282 ], [ 31.130275278296391, -17.925445227395361 ], [ 31.130275278296391, -17.925445227395361 ], [ 31.130366703028326, -17.925614532454496 ], [ 31.130410722343701, -17.925645007365141 ], [ 31.130444583355526, -17.925733045995891 ], [ 31.13052246368273, -17.925871876144381 ], [ 31.130556324694556, -17.925888806650295 ], [ 31.130617274515846, -17.925841401233736 ], [ 31.1310371510625, -17.925363960966976 ], [ 31.131094714782606, -17.925272536235042 ], [ 31.131561996745823, -17.924937312217953 ], [ 31.13188706245937, -17.924828956980107 ], [ 31.131954784483025, -17.924828956980107 ], [ 31.132042823113775, -17.924781551563548 ], [ 31.132560896594729, -17.924710443438713 ], [ 31.132733587755048, -17.924717215641078 ], [ 31.132831784689348, -17.924730760045808 ], [ 31.132889348409453, -17.924747690551722 ], [ 31.133089128379233, -17.924774779361183 ], [ 31.133143305998157, -17.924808640373008 ], [ 31.133221186325358, -17.924808640373008 ], [ 31.133691854389753, -17.924930540015588 ], [ 31.134220086174256, -17.925275922336226 ], [ 31.134396163435756, -17.925428296889447 ], [ 31.134851633393779, -17.925936702637213 ], [ 31.135084553790293, -17.926590856652943 ], [ 31.135114968172847, -17.926910207669735 ], [ 31.135114968172847, -17.927194075240219 ], [ 31.13506427753526, -17.927467804683186 ], [ 31.134978103451363, -17.927700981616081 ], [ 31.134907136558741, -17.927893606038911 ], [ 31.134744926518465, -17.928263647693289 ], [ 31.134476266139259, -17.928577929646323 ], [ 31.134253227333879, -17.928795899387946 ], [ 31.134025119464741, -17.928953040364462 ], [ 31.133837564105672, -17.929079766958427 ], [ 31.133695630320428, -17.929150733851049 ], [ 31.133599318109017, -17.929160871978567 ], [ 31.13343710806874, -17.929206493552392 ], [ 31.133259690837185, -17.929241976998703 ], [ 31.133122826115706, -17.929267322317497 ], [ 31.132970754202944, -17.929307874827568 ], [ 31.132762922588842, -17.929333220146361 ], [ 31.132615919739841, -17.929328151082601 ], [ 31.132230670894184, -17.929307874827568 ], [ 31.131820076729738, -17.92918621729736 ], [ 31.131221927206219, -17.928861797216808 ], [ 31.130836678360563, -17.928547515263773 ], [ 31.130679537384047, -17.928309269267118 ], [ 31.13051225828001, -17.927913882293943 ], [ 31.130476774833699, -17.927766879444945 ], [ 31.130451429514906, -17.92774660318991 ], [ 31.130339169565424, -17.927854361187979 ], [ 31.130349085643815, -17.927894025501526 ], [ 31.130294547212685, -17.927988228246203 ], [ 31.130210260546395, -17.928107221186849 ], [ 31.130076393488167, -17.928270836480237 ], [ 31.129873113881231, -17.928449325891204 ], [ 31.129873113881231, -17.928449325891204 ], [ 31.129808659371715, -17.928493948243947 ], [ 31.129640086039135, -17.928573276871042 ], [ 31.129516135059298, -17.928632773341366 ], [ 31.129397142118652, -17.928692269811688 ], [ 31.129268233099619, -17.928722018046848 ], [ 31.129159156237364, -17.928796388634751 ], [ 31.128970750748007, -17.92887571726185 ], [ 31.128722848788328, -17.928925297653784 ], [ 31.128559233494943, -17.928940171771366 ], [ 31.128380744083977, -17.92896000392814 ], [ 31.128152674281072, -17.928935213732171 ], [ 31.128038639379621, -17.928870759222654 ], [ 31.127964268791718, -17.928766640399591 ], [ 31.127756031145591, -17.928464200008783 ], [ 31.127741157028009, -17.928315458832977 ], [ 31.127691576636074, -17.928270836480237 ], [ 31.127527961342686, -17.928072514912493 ], [ 31.127483338989943, -17.927948563932656 ], [ 31.127413926441236, -17.927864277266366 ], [ 31.127369304088493, -17.927844445109592 ], [ 31.127250311147847, -17.927591585110722 ], [ 31.127091653893654, -17.927363515307821 ], [ 31.127002409188169, -17.927274270602336 ], [ 31.126952828796234, -17.927170151779272 ], [ 31.126888374286718, -17.927061074917013 ], [ 31.126858626051558, -17.926991662368305 ], [ 31.126823919777202, -17.926907375702012 ], [ 31.126809045659623, -17.926842921192499 ], [ 31.126799129581237, -17.926743760408627 ], [ 31.12681896173801, -17.926694180016693 ], [ 31.126809045659623, -17.92664955766395 ], [ 31.126685094679782, -17.926723928251853 ], [ 31.126655346444622, -17.926813172957335 ], [ 31.126913164482687, -17.927556878836366 ], [ 31.127096611932849, -17.927760158443302 ], [ 31.127215604873491, -17.927923773736691 ], [ 31.127349471931719, -17.928241088245073 ], [ 31.127433758598009, -17.928493948243947 ], [ 31.127523003303491, -17.928766640399591 ], [ 31.127488297029139, -17.928895549418623 ], [ 31.127418884480427, -17.928920339614589 ], [ 31.127418884480427, -17.928920339614589 ], [ 31.127374262127685, -17.928885633340236 ], [ 31.127275101343816, -17.928836052948299 ], [ 31.127017283305751, -17.928707143929266 ], [ 31.126620640170266, -17.928384871381688 ], [ 31.126422318602526, -17.928156801578783 ], [ 31.126253745269945, -17.927933689815074 ], [ 31.126124836250913, -17.92766099765943 ], [ 31.125936430761559, -17.927304018837496 ], [ 31.12591164056559, -17.927120571387334 ], [ 31.12588189233043, -17.926956956093946 ], [ 31.12593907978194, -17.926924180406917 ], [ 31.125893719781192, -17.926804109816707 ], [ 31.125899056251871, -17.926753413345285 ], [ 31.125912397428561, -17.92674807687461 ], [ 31.125909729193221, -17.926713389815216 ], [ 31.125888383310517, -17.926694712167851 ], [ 31.125885715075182, -17.926641347461089 ], [ 31.12595242095863, -17.926566636871627 ], [ 31.12592840684059, -17.92650526745885 ], [ 31.125904392722546, -17.926486589811486 ], [ 31.125891051545857, -17.926419883928038 ], [ 31.125880378604503, -17.926339836867896 ], [ 31.125923070369911, -17.926281135690459 ], [ 31.125955089193969, -17.926275799219784 ], [ 31.125989776253363, -17.926286472161134 ], [ 31.126061818607489, -17.926251785101741 ], [ 31.126077828019515, -17.926238443925051 ], [ 31.12605915037215, -17.926158396864913 ], [ 31.125976435076673, -17.926137050982209 ], [ 31.12595242095863, -17.926145055688224 ], [ 31.125936411546601, -17.926158396864913 ], [ 31.125971098605994, -17.925974288626591 ], [ 31.125981771547348, -17.925923592155169 ], [ 31.126021795077417, -17.925864890977731 ], [ 31.12604580919546, -17.925798185094283 ], [ 31.126061818607489, -17.92576082979955 ], [ 31.126141865667627, -17.925670109798059 ], [ 31.126157875079656, -17.92563008626799 ], [ 31.126205903315739, -17.925555375678528 ], [ 31.126219244492429, -17.92551001567778 ], [ 31.126293955081895, -17.925387276852234 ], [ 31.126317969199935, -17.92535525802818 ], [ 31.126349988023993, -17.925315234498107 ], [ 31.126398016260076, -17.925285883909389 ], [ 31.126440708025484, -17.925256533320674 ], [ 31.126483399790892, -17.92522184626128 ], [ 31.1265260915563, -17.925189827437222 ], [ 31.126592797439748, -17.92511511684776 ], [ 31.126688853911919, -17.925048410964308 ], [ 31.126736882148002, -17.924999048610559 ], [ 31.126827602149493, -17.924928340374102 ], [ 31.12689831038595, -17.924882980373358 ], [ 31.127009042152476, -17.924833618019605 ], [ 31.127091757447957, -17.924780253312846 ], [ 31.127187813920123, -17.924737561547438 ], [ 31.127246515097557, -17.924714881547064 ], [ 31.127278533921615, -17.924726888606084 ], [ 31.127323893922359, -17.92470687684105 ], [ 31.127374590393782, -17.924684196840676 ], [ 31.127437293924224, -17.924652178016622 ], [ 31.127462642159937, -17.924633500369257 ], [ 31.127491992748652, -17.924620159192564 ], [ 31.127550693926089, -17.924594810956854 ], [ 31.127581378632478, -17.924582803897835 ], [ 31.127696112752009, -17.924524102720397 ], [ 31.127736136282078, -17.924514763896717 ], [ 31.127804176283199, -17.924478742719653 ], [ 31.127881555108001, -17.924464067425294 ], [ 31.127912239814385, -17.924450726248605 ], [ 31.127973609227158, -17.924432048601236 ], [ 31.128006962168886, -17.924421375659886 ], [ 31.12805098805196, -17.924417373306881 ], [ 31.128084340993688, -17.924425378012891 ], [ 31.128084340993688, -17.924425378012891 ], [ 31.128164388053825, -17.924408034483196 ], [ 31.128205745701564, -17.924400029777182 ], [ 31.1283031362914, -17.924418707424547 ], [ 31.128396524528231, -17.924393359188837 ], [ 31.128432545705294, -17.924398695659512 ], [ 31.128472569235363, -17.924368010953128 ], [ 31.128455225705665, -17.924331989776064 ], [ 31.128427209234616, -17.924297302716671 ], [ 31.128479239823708, -17.924235933303898 ], [ 31.128499251588742, -17.924227928597883 ], [ 31.128513926883102, -17.924201246244504 ], [ 31.128611317472938, -17.924163890949771 ], [ 31.128674021003381, -17.924123867419702 ], [ 31.128739392769162, -17.924087846242639 ], [ 31.128767409240211, -17.924082509771964 ], [ 31.128836783358999, -17.9240464885949 ], [ 31.128902155124777, -17.924015803888512 ], [ 31.128962190419884, -17.923977114476113 ], [ 31.129031564538671, -17.923947763887394 ], [ 31.129087597480769, -17.923923749769351 ], [ 31.129314397484499, -17.923805013296811 ], [ 31.129445141016063, -17.923752982707722 ], [ 31.129574550429954, -17.923694281530285 ], [ 31.129619910430701, -17.923651589764876 ], [ 31.129619910430701, -17.923651589764876 ], [ 31.129654597490095, -17.923639582705857 ], [ 31.129734644550233, -17.923632912117512 ], [ 31.129801350433684, -17.923575545057744 ], [ 31.129821362198719, -17.923596890940448 ], [ 31.129837371610748, -17.923564872116394 ], [ 31.129857383375782, -17.92354486035136 ], [ 31.129894738670512, -17.923572876822409 ], [ 31.129930759847575, -17.923540857998351 ], [ 31.129952105730279, -17.923496832115273 ], [ 31.130009472790046, -17.923502168585951 ], [ 31.130007776302957, -17.923501605316481 ] ] ] ] } }
]
}
