{
"type": "FeatureCollection",
"name": "land_4",
"crs": { "type": "name", "properties": { "name": "urn:ogc:def:crs:OGC:1.3:CRS84" } },
"features": [
{ "type": "Feature", "properties": { "Land 4": "4", "area_m2": 179502.601, "area_ha": 17.95 }, "geometry": { "type": "MultiPolygon", "coordinates": [ [ [ [ 31.13978608759319, -17.905457546406691 ], [ 31.142792859627018, -17.904146885328874 ], [ 31.142792859627018, -17.904146885328874 ], [ 31.142862927039225, -17.904255171329556 ], [ 31.142990322334146, -17.904630987449579 ], [ 31.142939364216179, -17.904955845451632 ], [ 31.142716422450064, -17.905732956750658 ], [ 31.142417043506995, -17.906917732993435 ], [ 31.141922338848502, -17.9070014734503 ], [ 31.142427270963395, -17.906909226237001 ], [ 31.142446691429353, -17.906909226237001 ], [ 31.141917483732012, -17.907006328566791 ], [ 31.141936904197969, -17.907151982061471 ], [ 31.142067992343183, -17.907559811846575 ], [ 31.142169949789459, -17.907622928360936 ], [ 31.142111688391587, -17.907705465341255 ], [ 31.142160239556482, -17.907788002321574 ], [ 31.142160239556478, -17.90802590302955 ], [ 31.14208255769265, -17.908351195834339 ], [ 31.142004875828821, -17.908472573746572 ], [ 31.141907773499032, -17.908841562599761 ], [ 31.141776685353822, -17.909278523083803 ], [ 31.141684438140523, -17.90943388681146 ], [ 31.141674727907546, -17.909647511936992 ], [ 31.141538784645842, -17.909982514974754 ], [ 31.141397986267652, -17.910060196838586 ], [ 31.141446537432547, -17.910380634526881 ], [ 31.141344579986271, -17.910725347797623 ], [ 31.141126099744248, -17.910827305243902 ], [ 31.140936750201163, -17.910841870593369 ], [ 31.140562906231484, -17.910283532197095 ], [ 31.140358991338935, -17.909933963809863 ], [ 31.14001427806819, -17.909404756112522 ], [ 31.139635578982023, -17.908652213056676 ], [ 31.139421953856491, -17.908021047913063 ], [ 31.13898499337245, -17.906904371120515 ], [ 31.138441220325646, -17.906025595035942 ], [ 31.13978608759319, -17.905457546406691 ] ] ] ] } }
]
}
