{
"type": "FeatureCollection",
"name": "Research_trial",
"crs": { "type": "name", "properties": { "name": "urn:ogc:def:crs:OGC:1.3:CRS84" } },
"features": [
{ "type": "Feature", "properties": { "Latitude": -17.9133533, "Longitude": 31.13543, "ID": 1, "Trial name": "26PH13K", "GPS date": "15/10/25", "Researcher": "J. Mapodzeke", "Year": 2025, "Crop": "Tobacco" }, "geometry": { "type": "Point", "coordinates": [ 31.13543, -17.9133533 ] } },
{ "type": "Feature", "properties": { "Latitude": -17.913055, "Longitude": 31.1353733, "ID": 2, "Trial name": "26PH13K", "GPS date": "15/10/25", "Researcher": "J. Mapodzeke", "Year": 2025, "Crop": "Tobacco" }, "geometry": { "type": "Point", "coordinates": [ 31.1353733, -17.913055 ] } },
{ "type": "Feature", "properties": { "Latitude": -17.9128717, "Longitude": 31.135338, "ID": 3, "Trial name": "26PH13K", "GPS date": "15/10/25", "Researcher": "J. Mapodzeke", "Year": 2025, "Crop": "Tobacco" }, "geometry": { "type": "Point", "coordinates": [ 31.135338, -17.9128717 ] } },
{ "type": "Feature", "properties": { "Latitude": -17.912665, "Longitude": 31.1352983, "ID": 4, "Trial name": "26PH13K", "GPS date": "15/10/25", "Researcher": "J. Mapodzeke", "Year": 2025, "Crop": "Tobacco" }, "geometry": { "type": "Point", "coordinates": [ 31.1352983, -17.912665 ] } },
{ "type": "Feature", "properties": { "Latitude": -17.91252, "Longitude": 31.1352767, "ID": 5, "Trial name": "26PH13K", "GPS date": "15/10/25", "Researcher": "J. Mapodzeke", "Year": 2025, "Crop": "Tobacco" }, "geometry": { "type": "Point", "coordinates": [ 31.1352767, -17.91252 ] } },
{ "type": "Feature", "properties": { "Latitude": -17.9123, "Longitude": 31.1352367, "ID": 6, "Trial name": "26PH13K", "GPS date": "15/10/25", "Researcher": "J. Mapodzeke", "Year": 2025, "Crop": "Tobacco" }, "geometry": { "type": "Point", "coordinates": [ 31.1352367, -17.9123 ] } },
{ "type": "Feature", "properties": { "Latitude": -17.911995, "Longitude": 31.1351867, "ID": 7, "Trial name": "26PH13K", "GPS date": "15/10/25", "Researcher": "J. Mapodzeke", "Year": 2025, "Crop": "Tobacco" }, "geometry": { "type": "Point", "coordinates": [ 31.1351867, -17.911995 ] } },
{ "type": "Feature", "properties": { "Latitude": -17.911777, "Longitude": 31.1351511, "ID": 8, "Trial name": "26PH13K", "GPS date": "15/10/25", "Researcher": "J. Mapodzeke", "Year": 2025, "Crop": "Tobacco" }, "geometry": { "type": "Point", "coordinates": [ 31.1351511, -17.911777 ] } },
{ "type": "Feature", "properties": { "Latitude": -17.9115766, "Longitude": 31.1351087, "ID": 9, "Trial name": "26PH13K", "GPS date": "15/10/25", "Researcher": "J. Mapodzeke", "Year": 2025, "Crop": "Tobacco" }, "geometry": { "type": "Point", "coordinates": [ 31.1351087, -17.9115766 ] } },
{ "type": "Feature", "properties": { "Latitude": -17.911545, "Longitude": 31.1351084, "ID": 10, "Trial name": "26PH13K", "GPS date": "15/10/25", "Researcher": "J. Mapodzeke", "Year": 2025, "Crop": "Tobacco" }, "geometry": { "type": "Point", "coordinates": [ 31.1351084, -17.911545 ] } },
{ "type": "Feature", "properties": { "Latitude": -17.9115251, "Longitude": 31.135099, "ID": 11, "Trial name": "26PH13K", "GPS date": "15/10/25", "Researcher": "J. Mapodzeke", "Year": 2025, "Crop": "Tobacco" }, "geometry": { "type": "Point", "coordinates": [ 31.135099, -17.9115251 ] } },
{ "type": "Feature", "properties": { "Latitude": -17.9114913, "Longitude": 31.1352709, "ID": 12, "Trial name": "26PH13K", "GPS date": "15/10/25", "Researcher": "J. Mapodzeke", "Year": 2025, "Crop": "Tobacco" }, "geometry": { "type": "Point", "coordinates": [ 31.1352709, -17.9114913 ] } },
{ "type": "Feature", "properties": { "Latitude": -17.9116696, "Longitude": 31.1353104, "ID": 13, "Trial name": "26PH13K", "GPS date": "15/10/25", "Researcher": "J. Mapodzeke", "Year": 2025, "Crop": "Tobacco" }, "geometry": { "type": "Point", "coordinates": [ 31.1353104, -17.9116696 ] } },
{ "type": "Feature", "properties": { "Latitude": -17.911793, "Longitude": 31.1353254, "ID": 14, "Trial name": "26PH13K", "GPS date": "15/10/25", "Researcher": "J. Mapodzeke", "Year": 2025, "Crop": "Tobacco" }, "geometry": { "type": "Point", "coordinates": [ 31.1353254, -17.911793 ] } },
{ "type": "Feature", "properties": { "Latitude": -17.9118693, "Longitude": 31.135345, "ID": 15, "Trial name": "26PH13K", "GPS date": "15/10/25", "Researcher": "J. Mapodzeke", "Year": 2025, "Crop": "Tobacco" }, "geometry": { "type": "Point", "coordinates": [ 31.135345, -17.9118693 ] } },
{ "type": "Feature", "properties": { "Latitude": -17.9119398, "Longitude": 31.1353547, "ID": 16, "Trial name": "26PH13K", "GPS date": "15/10/25", "Researcher": "J. Mapodzeke", "Year": 2025, "Crop": "Tobacco" }, "geometry": { "type": "Point", "coordinates": [ 31.1353547, -17.9119398 ] } },
{ "type": "Feature", "properties": { "Latitude": -17.9120364, "Longitude": 31.1353787, "ID": 17, "Trial name": "26PH13K", "GPS date": "15/10/25", "Researcher": "J. Mapodzeke", "Year": 2025, "Crop": "Tobacco" }, "geometry": { "type": "Point", "coordinates": [ 31.1353787, -17.9120364 ] } },
{ "type": "Feature", "properties": { "Latitude": -17.912088, "Longitude": 31.1353903, "ID": 18, "Trial name": "26PH13K", "GPS date": "15/10/25", "Researcher": "J. Mapodzeke", "Year": 2025, "Crop": "Tobacco" }, "geometry": { "type": "Point", "coordinates": [ 31.1353903, -17.912088 ] } },
{ "type": "Feature", "properties": { "Latitude": -17.912247, "Longitude": 31.1354054, "ID": 19, "Trial name": "26PH13K", "GPS date": "15/10/25", "Researcher": "J. Mapodzeke", "Year": 2025, "Crop": "Tobacco" }, "geometry": { "type": "Point", "coordinates": [ 31.1354054, -17.912247 ] } },
{ "type": "Feature", "properties": { "Latitude": -17.9123389, "Longitude": 31.1354184, "ID": 20, "Trial name": "26PH13K", "GPS date": "15/10/25", "Researcher": "J. Mapodzeke", "Year": 2025, "Crop": "Tobacco" }, "geometry": { "type": "Point", "coordinates": [ 31.1354184, -17.9123389 ] } },
{ "type": "Feature", "properties": { "Latitude": -17.9124453, "Longitude": 31.1354407, "ID": 21, "Trial name": "26PH13K", "GPS date": "15/10/25", "Researcher": "J. Mapodzeke", "Year": 2025, "Crop": "Tobacco" }, "geometry": { "type": "Point", "coordinates": [ 31.1354407, -17.9124453 ] } },
{ "type": "Feature", "properties": { "Latitude": -17.912516, "Longitude": 31.1354552, "ID": 22, "Trial name": "26PH13K", "GPS date": "15/10/25", "Researcher": "J. Mapodzeke", "Year": 2025, "Crop": "Tobacco" }, "geometry": { "type": "Point", "coordinates": [ 31.1354552, -17.912516 ] } },
{ "type": "Feature", "properties": { "Latitude": -17.9125948, "Longitude": 31.135475, "ID": 23, "Trial name": "26PH13K", "GPS date": "15/10/25", "Researcher": "J. Mapodzeke", "Year": 2025, "Crop": "Tobacco" }, "geometry": { "type": "Point", "coordinates": [ 31.135475, -17.9125948 ] } },
{ "type": "Feature", "properties": { "Latitude": -17.9126632, "Longitude": 31.1354846, "ID": 24, "Trial name": "26PH13K", "GPS date": "15/10/25", "Researcher": "J. Mapodzeke", "Year": 2025, "Crop": "Tobacco" }, "geometry": { "type": "Point", "coordinates": [ 31.1354846, -17.9126632 ] } },
{ "type": "Feature", "properties": { "Latitude": -17.9127507, "Longitude": 31.1355062, "ID": 25, "Trial name": "26PH13K", "GPS date": "15/10/25", "Researcher": "J. Mapodzeke", "Year": 2025, "Crop": "Tobacco" }, "geometry": { "type": "Point", "coordinates": [ 31.1355062, -17.9127507 ] } },
{ "type": "Feature", "properties": { "Latitude": -17.912911, "Longitude": 31.1355285, "ID": 26, "Trial name": "26PH13K", "GPS date": "15/10/25", "Researcher": "J. Mapodzeke", "Year": 2025, "Crop": "Tobacco" }, "geometry": { "type": "Point", "coordinates": [ 31.1355285, -17.912911 ] } },
{ "type": "Feature", "properties": { "Latitude": -17.912995, "Longitude": 31.1355449, "ID": 27, "Trial name": "26PH13K", "GPS date": "15/10/25", "Researcher": "J. Mapodzeke", "Year": 2025, "Crop": "Tobacco" }, "geometry": { "type": "Point", "coordinates": [ 31.1355449, -17.912995 ] } },
{ "type": "Feature", "properties": { "Latitude": -17.9131391, "Longitude": 31.1355737, "ID": 28, "Trial name": "26PH13K", "GPS date": "15/10/25", "Researcher": "J. Mapodzeke", "Year": 2025, "Crop": "Tobacco" }, "geometry": { "type": "Point", "coordinates": [ 31.1355737, -17.9131391 ] } },
{ "type": "Feature", "properties": { "Latitude": -17.91318, "Longitude": 31.1355817, "ID": 29, "Trial name": "26PH13K", "GPS date": "15/10/25", "Researcher": "J. Mapodzeke", "Year": 2025, "Crop": "Tobacco" }, "geometry": { "type": "Point", "coordinates": [ 31.1355817, -17.91318 ] } },
{ "type": "Feature", "properties": { "Latitude": -17.9132547, "Longitude": 31.1355924, "ID": 30, "Trial name": "26PH13K", "GPS date": "15/10/25", "Researcher": "J. Mapodzeke", "Year": 2025, "Crop": "Tobacco" }, "geometry": { "type": "Point", "coordinates": [ 31.1355924, -17.9132547 ] } },
{ "type": "Feature", "properties": { "Latitude": -17.9133144, "Longitude": 31.135603, "ID": 31, "Trial name": "26PH13K", "GPS date": "15/10/25", "Researcher": "J. Mapodzeke", "Year": 2025, "Crop": "Tobacco" }, "geometry": { "type": "Point", "coordinates": [ 31.135603, -17.9133144 ] } },
{ "type": "Feature", "properties": { "Latitude": -17.913333, "Longitude": 31.1355601, "ID": 32, "Trial name": "26PH13K", "GPS date": "15/10/25", "Researcher": "J. Mapodzeke", "Year": 2025, "Crop": "Tobacco" }, "geometry": { "type": "Point", "coordinates": [ 31.1355601, -17.913333 ] } },
{ "type": "Feature", "properties": { "Latitude": -17.9133461, "Longitude": 31.1354812, "ID": 33, "Trial name": "26PH13K", "GPS date": "15/10/25", "Researcher": "J. Mapodzeke", "Year": 2025, "Crop": "Tobacco" }, "geometry": { "type": "Point", "coordinates": [ 31.1354812, -17.9133461 ] } },
{ "type": "Feature", "properties": { "Latitude": -17.913353, "Longitude": 31.13543, "ID": 34, "Trial name": "26PH13K", "GPS date": "15/10/25", "Researcher": "J. Mapodzeke", "Year": 2025, "Crop": "Tobacco" }, "geometry": { "type": "Point", "coordinates": [ 31.13543, -17.913353 ] } }
]
}
